<?xml version="1.0" encoding="UTF-8"?>
<gpx version="1.1" creator="HermesMotoTrip"
  xmlns="http://www.topografix.com/GPX/1/1"
  xmlns:xsi="http://www.w3.org/2001/XMLSchema-instance"
  xsi:schemaLocation="http://www.topografix.com/GPX/1/1 http://www.topografix.com/GPX/1/1/gpx.xsd">
  <metadata><name>Day 1 - Sebastopol to Tonopah</name><desc>US-101 S, I-80 E, US-50 E, sharp right Meyers, US-395 S, US-95 S to Tonopah</desc><time>2026-05-31T18:27:22Z</time></metadata>
  <wpt lat="38.3749018" lon="-122.8087704"><name>613 Sparkes Rd</name></wpt>
  <wpt lat="38.661954" lon="-120.9371642"><name>Shingle Springs</name></wpt>
  <wpt lat="38.8509526" lon="-120.0221797"><name>Meyers</name></wpt>
  <wpt lat="38.7742988" lon="-119.821921"><name>Alpine Village</name></wpt>
  <wpt lat="38.7611083" lon="-119.3852615"><name>Rosies Place</name></wpt>
  <wpt lat="38.6482535" lon="-118.7551395"><name>Walker Lake</name></wpt>
  <wpt lat="38.069211" lon="-117.2305861"><name>Tonopah</name></wpt>
  <wpt lat="38.374725" lon="-122.8088194"><name>613 Sparkes Rd</name></wpt>
  <wpt lat="38.6619187" lon="-120.937281"><name>Shingle Springs</name></wpt>
  <wpt lat="38.069178" lon="-117.2307181"><name>Tonopah, NV</name></wpt>
</gpx>