<?xml version="1.0" encoding="UTF-8"?>
<gpx version="1.1" creator="HermesMotoTrip"
  xmlns="http://www.topografix.com/GPX/1/1">
  <metadata><name>Day 1 — Sebastopol CA → Tonopah NV</name><desc>I-80 E → US-50 E → Fallon NV → US-95 S → Hawthorne NV (Walker Lake) → Tonopah NV. ~466mi ~7.5h.</desc>
  <time>2026-05-31T08:38:28Z</time></metadata>
  <rte><name>Day 1 — Sebastopol CA → Tonopah NV</name><desc>I-80 E → US-50 E → Fallon NV → US-95 S → Hawthorne NV (Walker Lake) → Tonopah NV. ~466mi ~7.5h.</desc>
  <rtept lat="38.4022" lon="-122.836"><name>Sebastopol CA</name></rtept>
  <rtept lat="39.4735" lon="-118.7774"><name>Fallon NV</name></rtept>
  <rtept lat="38.5268" lon="-118.6254"><name>Hawthorne NV</name></rtept>
  <rtept lat="38.0673" lon="-117.2307"><name>Tonopah NV</name></rtept>
  </rte>
</gpx>