<?xml version="1.0" encoding="UTF-8"?>
<gpx version="1.1" creator="HermesMotoTrip"
  xmlns="http://www.topografix.com/GPX/1/1"
  xmlns:xsi="http://www.w3.org/2001/XMLSchema-instance"
  xsi:schemaLocation="http://www.topografix.com/GPX/1/1 http://www.topografix.com/GPX/1/1/gpx.xsd">
  <metadata>
    <name>Day 2 - Tonopah NV to Alamo NV via ET Highway</name>
    <desc>US-6 E to Warm Springs then NV-375 S (Extraterrestrial Hwy) through Rachel to Alamo NV. 161mi ~2.5h. FILL UP IN TONOPAH.</desc>
    <time>2026-05-31T08:49:31Z</time>
  </metadata>
  <wpt lat="38.0673" lon="-117.2307"><name>Tonopah NV</name></wpt>
  <wpt lat="38.1686" lon="-116.3733"><name>Warm Springs NV</name></wpt>
  <wpt lat="37.6475" lon="-115.743"><name>Rachel NV</name></wpt>
  <wpt lat="37.4433" lon="-115.1538"><name>Crystal Springs NV</name></wpt>
  <wpt lat="37.3649" lon="-115.1638"><name>Alamo NV</name></wpt>
  <rte>
    <name>Day 2 - Tonopah NV to Alamo NV via ET Highway</name>
  <rtept lat="38.0673" lon="-117.2307"><name>Tonopah NV</name></rtept>
  <rtept lat="38.1686" lon="-116.3733"><name>Warm Springs NV</name></rtept>
  <rtept lat="37.6475" lon="-115.743"><name>Rachel NV</name></rtept>
  <rtept lat="37.4433" lon="-115.1538"><name>Crystal Springs NV</name></rtept>
  <rtept lat="37.3649" lon="-115.1638"><name>Alamo NV</name></rtept>
  </rte>
</gpx>