<?xml version="1.0" encoding="UTF-8"?>
<gpx version="1.1"
  creator="moto-trip-2026"
  xmlns="http://www.topografix.com/GPX/1/1"
  xmlns:xsi="http://www.w3.org/2001/XMLSchema-instance"
  xsi:schemaLocation="http://www.topografix.com/GPX/1/1 http://www.topografix.com/GPX/1/1/gpx.xsd">
  <metadata><name>Day 2 Seg1 Tonopah to Alamo ET Hwy</name></metadata>
  <wpt lat="38.0673" lon="-117.2307">
    <name>Tonopah NV</name>
  </wpt>
  <wpt lat="38.1686" lon="-116.3733">
    <name>Warm Springs NV</name>
  </wpt>
  <wpt lat="37.6475" lon="-115.743">
    <name>Rachel NV</name>
  </wpt>
  <wpt lat="37.4433" lon="-115.1538">
    <name>Crystal Springs NV</name>
  </wpt>
  <wpt lat="37.3649" lon="-115.1638">
    <name>Alamo NV</name>
  </wpt>
  <rte>
    <name>Day 2 Seg1 Tonopah to Alamo ET Hwy</name>
    <rtept lat="38.0673" lon="-117.2307">
      <name>Tonopah NV</name>
    </rtept>
    <rtept lat="38.1686" lon="-116.3733">
      <name>Warm Springs NV</name>
    </rtept>
    <rtept lat="37.6475" lon="-115.743">
      <name>Rachel NV</name>
    </rtept>
    <rtept lat="37.4433" lon="-115.1538">
      <name>Crystal Springs NV</name>
    </rtept>
    <rtept lat="37.3649" lon="-115.1638">
      <name>Alamo NV</name>
    </rtept>
  </rte>
</gpx>
