<?xml version="1.0" encoding="UTF-8"?>
<gpx version="1.1" creator="HermesMotoTrip"
  xmlns="http://www.topografix.com/GPX/1/1"
  xmlns:xsi="http://www.w3.org/2001/XMLSchema-instance"
  xsi:schemaLocation="http://www.topografix.com/GPX/1/1 http://www.topografix.com/GPX/1/1/gpx.xsd">
  <metadata><name>Day 3 - Alamo NV to Capitol Reef NP</name><desc>US-93 N through Caliente and Panaca, NV-319 to Utah, UT-56 to Cedar City, UT-14 E through Dixie National Forest, US-89 N, UT-12 E scenic byway, UT-24 W to Capitol Reef NP. 369 miles.</desc><time>2026-05-31T14:51:17Z</time></metadata>
  <wpt lat="37.36495" lon="-115.16376"><name>Start - Alamo NV</name></wpt>
  <wpt lat="37.36863" lon="-115.15995"><name>Broadway St to US-93 N</name></wpt>
  <wpt lat="37.79037" lon="-114.40714"><name>US-93 N to US-93 E</name></wpt>
  <wpt lat="37.78999" lon="-114.2877"><name>US-93 E to NV-319 E</name></wpt>
  <wpt lat="37.72458" lon="-114.04026"><name>NV-319 to UT-56</name></wpt>
  <wpt lat="37.68094" lon="-113.05839"><name>UT-56 to N Main St</name></wpt>
  <wpt lat="37.67729" lon="-113.05273"><name>N Main St to UT-14 E</name></wpt>
  <wpt lat="37.58993" lon="-112.88145"><name>UT-14 E to UT-148 N</name></wpt>
  <wpt lat="37.57196" lon="-112.84281"><name>UT-148 N to US-89 N</name></wpt>
  <wpt lat="37.64739" lon="-112.43444"><name>US-89 N to UT-12 E</name></wpt>
  <wpt lat="38.29788" lon="-111.41893"><name>UT-12 E to UT-24 W</name></wpt>
  <wpt lat="38.08343" lon="-111.12643"><name>End - Capitol Reef NP</name></wpt>
  <rte>
    <name>Day 3 - Alamo NV to Capitol Reef NP</name>
  <rtept lat="37.36495" lon="-115.16376"><name>Start - Alamo NV</name></rtept>
  <rtept lat="37.36863" lon="-115.15995"><name>Broadway St to US-93 N</name></rtept>
  <rtept lat="37.79037" lon="-114.40714"><name>US-93 N to US-93 E</name></rtept>
  <rtept lat="37.78999" lon="-114.2877"><name>US-93 E to NV-319 E</name></rtept>
  <rtept lat="37.72458" lon="-114.04026"><name>NV-319 to UT-56</name></rtept>
  <rtept lat="37.68094" lon="-113.05839"><name>UT-56 to N Main St</name></rtept>
  <rtept lat="37.67729" lon="-113.05273"><name>N Main St to UT-14 E</name></rtept>
  <rtept lat="37.58993" lon="-112.88145"><name>UT-14 E to UT-148 N</name></rtept>
  <rtept lat="37.57196" lon="-112.84281"><name>UT-148 N to US-89 N</name></rtept>
  <rtept lat="37.64739" lon="-112.43444"><name>US-89 N to UT-12 E</name></rtept>
  <rtept lat="38.29788" lon="-111.41893"><name>UT-12 E to UT-24 W</name></rtept>
  <rtept lat="38.08343" lon="-111.12643"><name>End - Capitol Reef NP</name></rtept>
  </rte>
  <trk>
    <name>Day 3 - Alamo NV to Capitol Reef NP</name>
    <trkseg>
      <trkpt lat="37.36495" lon="-115.16376"><ele>0.0</ele></trkpt>
      <trkpt lat="37.38497" lon="-115.16056"><ele>0.0</ele></trkpt>
      <trkpt lat="37.41785" lon="-115.17359"><ele>0.0</ele></trkpt>
      <trkpt lat="37.44125" lon="-115.18347"><ele>0.0</ele></trkpt>
      <trkpt lat="37.45204" lon="-115.19084"><ele>0.0</ele></trkpt>
      <trkpt lat="37.46813" lon="-115.19361"><ele>0.0</ele></trkpt>
      <trkpt lat="37.49237" lon="-115.2042"><ele>0.0</ele></trkpt>
      <trkpt lat="37.52433" lon="-115.22177"><ele>0.0</ele></trkpt>
      <trkpt lat="37.53015" lon="-115.21801"><ele>0.0</ele></trkpt>
      <trkpt lat="37.54228" lon="-115.19937"><ele>0.0</ele></trkpt>
      <trkpt lat="37.54943" lon="-115.19077"><ele>0.0</ele></trkpt>
      <trkpt lat="37.55048" lon="-115.18169"><ele>0.0</ele></trkpt>
      <trkpt lat="37.54954" lon="-115.15521"><ele>0.0</ele></trkpt>
      <trkpt lat="37.58405" lon="-115.08318"><ele>0.0</ele></trkpt>
      <trkpt lat="37.60499" lon="-115.03941"><ele>0.0</ele></trkpt>
      <trkpt lat="37.61778" lon="-115.00336"><ele>0.0</ele></trkpt>
      <trkpt lat="37.61366" lon="-114.86001"><ele>0.0</ele></trkpt>
      <trkpt lat="37.62008" lon="-114.79222"><ele>0.0</ele></trkpt>
      <trkpt lat="37.62286" lon="-114.75975"><ele>0.0</ele></trkpt>
      <trkpt lat="37.61538" lon="-114.74031"><ele>0.0</ele></trkpt>
      <trkpt lat="37.60665" lon="-114.7041"><ele>0.0</ele></trkpt>
      <trkpt lat="37.59495" lon="-114.69005"><ele>0.0</ele></trkpt>
      <trkpt lat="37.59267" lon="-114.68222"><ele>0.0</ele></trkpt>
      <trkpt lat="37.59771" lon="-114.67412"><ele>0.0</ele></trkpt>
      <trkpt lat="37.59911" lon="-114.66851"><ele>0.0</ele></trkpt>
      <trkpt lat="37.6014" lon="-114.65452"><ele>0.0</ele></trkpt>
      <trkpt lat="37.60516" lon="-114.64615"><ele>0.0</ele></trkpt>
      <trkpt lat="37.60229" lon="-114.62832"><ele>0.0</ele></trkpt>
      <trkpt lat="37.60937" lon="-114.61673"><ele>0.0</ele></trkpt>
      <trkpt lat="37.62179" lon="-114.59976"><ele>0.0</ele></trkpt>
      <trkpt lat="37.62223" lon="-114.58283"><ele>0.0</ele></trkpt>
      <trkpt lat="37.62254" lon="-114.57406"><ele>0.0</ele></trkpt>
      <trkpt lat="37.62223" lon="-114.56316"><ele>0.0</ele></trkpt>
      <trkpt lat="37.62206" lon="-114.55626"><ele>0.0</ele></trkpt>
      <trkpt lat="37.62162" lon="-114.5441"><ele>0.0</ele></trkpt>
      <trkpt lat="37.61358" lon="-114.53344"><ele>0.0</ele></trkpt>
      <trkpt lat="37.60938" lon="-114.52405"><ele>0.0</ele></trkpt>
      <trkpt lat="37.61499" lon="-114.51084"><ele>0.0</ele></trkpt>
      <trkpt lat="37.62158" lon="-114.51171"><ele>0.0</ele></trkpt>
      <trkpt lat="37.63152" lon="-114.50833"><ele>0.0</ele></trkpt>
      <trkpt lat="37.64927" lon="-114.50496"><ele>0.0</ele></trkpt>
      <trkpt lat="37.65396" lon="-114.49856"><ele>0.0</ele></trkpt>
      <trkpt lat="37.66017" lon="-114.49415"><ele>0.0</ele></trkpt>
      <trkpt lat="37.66863" lon="-114.48886"><ele>0.0</ele></trkpt>
      <trkpt lat="37.67459" lon="-114.48436"><ele>0.0</ele></trkpt>
      <trkpt lat="37.68441" lon="-114.47253"><ele>0.0</ele></trkpt>
      <trkpt lat="37.72847" lon="-114.45191"><ele>0.0</ele></trkpt>
      <trkpt lat="37.76365" lon="-114.42246"><ele>0.0</ele></trkpt>
      <trkpt lat="37.79037" lon="-114.40714"><ele>0.0</ele></trkpt>
      <trkpt lat="37.78867" lon="-114.35437"><ele>0.0</ele></trkpt>
      <trkpt lat="37.7878" lon="-114.34352"><ele>0.0</ele></trkpt>
      <trkpt lat="37.78845" lon="-114.32413"><ele>0.0</ele></trkpt>
      <trkpt lat="37.78652" lon="-114.303"><ele>0.0</ele></trkpt>
      <trkpt lat="37.78808" lon="-114.2911"><ele>0.0</ele></trkpt>
      <trkpt lat="37.79042" lon="-114.27452"><ele>0.0</ele></trkpt>
      <trkpt lat="37.78606" lon="-114.25344"><ele>0.0</ele></trkpt>
      <trkpt lat="37.78339" lon="-114.23901"><ele>0.0</ele></trkpt>
      <trkpt lat="37.78227" lon="-114.223"><ele>0.0</ele></trkpt>
      <trkpt lat="37.77413" lon="-114.20352"><ele>0.0</ele></trkpt>
      <trkpt lat="37.76573" lon="-114.19093"><ele>0.0</ele></trkpt>
      <trkpt lat="37.75445" lon="-114.17767"><ele>0.0</ele></trkpt>
      <trkpt lat="37.74974" lon="-114.1685"><ele>0.0</ele></trkpt>
      <trkpt lat="37.73545" lon="-114.13607"><ele>0.0</ele></trkpt>
      <trkpt lat="37.7278" lon="-114.10517"><ele>0.0</ele></trkpt>
      <trkpt lat="37.72605" lon="-114.09316"><ele>0.0</ele></trkpt>
      <trkpt lat="37.72413" lon="-114.05418"><ele>0.0</ele></trkpt>
      <trkpt lat="37.72565" lon="-114.03614"><ele>0.0</ele></trkpt>
      <trkpt lat="37.73119" lon="-114.02732"><ele>0.0</ele></trkpt>
      <trkpt lat="37.75307" lon="-113.99768"><ele>0.0</ele></trkpt>
      <trkpt lat="37.80148" lon="-113.92835"><ele>0.0</ele></trkpt>
      <trkpt lat="37.8017" lon="-113.91741"><ele>0.0</ele></trkpt>
      <trkpt lat="37.76622" lon="-113.81686"><ele>0.0</ele></trkpt>
      <trkpt lat="37.69148" lon="-113.6062"><ele>0.0</ele></trkpt>
      <trkpt lat="37.67294" lon="-113.55446"><ele>0.0</ele></trkpt>
      <trkpt lat="37.67576" lon="-113.49679"><ele>0.0</ele></trkpt>
      <trkpt lat="37.66205" lon="-113.46385"><ele>0.0</ele></trkpt>
      <trkpt lat="37.63165" lon="-113.42759"><ele>0.0</ele></trkpt>
      <trkpt lat="37.61358" lon="-113.40495"><ele>0.0</ele></trkpt>
      <trkpt lat="37.61089" lon="-113.37537"><ele>0.0</ele></trkpt>
      <trkpt lat="37.60871" lon="-113.36623"><ele>0.0</ele></trkpt>
      <trkpt lat="37.60774" lon="-113.35821"><ele>0.0</ele></trkpt>
      <trkpt lat="37.61404" lon="-113.34021"><ele>0.0</ele></trkpt>
      <trkpt lat="37.62566" lon="-113.31684"><ele>0.0</ele></trkpt>
      <trkpt lat="37.63266" lon="-113.29549"><ele>0.0</ele></trkpt>
      <trkpt lat="37.63686" lon="-113.27996"><ele>0.0</ele></trkpt>
      <trkpt lat="37.64015" lon="-113.25752"><ele>0.0</ele></trkpt>
      <trkpt lat="37.64755" lon="-113.23945"><ele>0.0</ele></trkpt>
      <trkpt lat="37.67586" lon="-113.1807"><ele>0.0</ele></trkpt>
      <trkpt lat="37.68455" lon="-113.09642"><ele>0.0</ele></trkpt>
      <trkpt lat="37.67791" lon="-113.05835"><ele>0.0</ele></trkpt>
      <trkpt lat="37.67511" lon="-113.04949"><ele>0.0</ele></trkpt>
      <trkpt lat="37.67183" lon="-113.04131"><ele>0.0</ele></trkpt>
      <trkpt lat="37.67407" lon="-113.03087"><ele>0.0</ele></trkpt>
      <trkpt lat="37.67297" lon="-113.02533"><ele>0.0</ele></trkpt>
      <trkpt lat="37.67329" lon="-113.01858"><ele>0.0</ele></trkpt>
      <trkpt lat="37.67031" lon="-113.0131"><ele>0.0</ele></trkpt>
      <trkpt lat="37.66602" lon="-113.00658"><ele>0.0</ele></trkpt>
      <trkpt lat="37.66275" lon="-112.99681"><ele>0.0</ele></trkpt>
      <trkpt lat="37.65689" lon="-112.99176"><ele>0.0</ele></trkpt>
      <trkpt lat="37.6521" lon="-112.98214"><ele>0.0</ele></trkpt>
      <trkpt lat="37.6483" lon="-112.97204"><ele>0.0</ele></trkpt>
      <trkpt lat="37.64497" lon="-112.96686"><ele>0.0</ele></trkpt>
      <trkpt lat="37.64363" lon="-112.96002"><ele>0.0</ele></trkpt>
      <trkpt lat="37.64187" lon="-112.95594"><ele>0.0</ele></trkpt>
      <trkpt lat="37.63545" lon="-112.94778"><ele>0.0</ele></trkpt>
      <trkpt lat="37.63083" lon="-112.93963"><ele>0.0</ele></trkpt>
      <trkpt lat="37.62927" lon="-112.93612"><ele>0.0</ele></trkpt>
      <trkpt lat="37.62483" lon="-112.9334"><ele>0.0</ele></trkpt>
      <trkpt lat="37.61968" lon="-112.93164"><ele>0.0</ele></trkpt>
      <trkpt lat="37.61085" lon="-112.93312"><ele>0.0</ele></trkpt>
      <trkpt lat="37.60833" lon="-112.93525"><ele>0.0</ele></trkpt>
      <trkpt lat="37.60388" lon="-112.9365"><ele>0.0</ele></trkpt>
      <trkpt lat="37.60062" lon="-112.93402"><ele>0.0</ele></trkpt>
      <trkpt lat="37.59681" lon="-112.92691"><ele>0.0</ele></trkpt>
      <trkpt lat="37.59443" lon="-112.91434"><ele>0.0</ele></trkpt>
      <trkpt lat="37.59042" lon="-112.90269"><ele>0.0</ele></trkpt>
      <trkpt lat="37.5921" lon="-112.89934"><ele>0.0</ele></trkpt>
      <trkpt lat="37.59308" lon="-112.89944"><ele>0.0</ele></trkpt>
      <trkpt lat="37.5935" lon="-112.89254"><ele>0.0</ele></trkpt>
      <trkpt lat="37.59228" lon="-112.883"><ele>0.0</ele></trkpt>
      <trkpt lat="37.58701" lon="-112.8833"><ele>0.0</ele></trkpt>
      <trkpt lat="37.58263" lon="-112.88304"><ele>0.0</ele></trkpt>
      <trkpt lat="37.58153" lon="-112.87829"><ele>0.0</ele></trkpt>
      <trkpt lat="37.58131" lon="-112.87434"><ele>0.0</ele></trkpt>
      <trkpt lat="37.57869" lon="-112.87024"><ele>0.0</ele></trkpt>
      <trkpt lat="37.5775" lon="-112.8663"><ele>0.0</ele></trkpt>
      <trkpt lat="37.5749" lon="-112.86162"><ele>0.0</ele></trkpt>
      <trkpt lat="37.57174" lon="-112.85902"><ele>0.0</ele></trkpt>
      <trkpt lat="37.57003" lon="-112.85529"><ele>0.0</ele></trkpt>
      <trkpt lat="37.56793" lon="-112.84981"><ele>0.0</ele></trkpt>
      <trkpt lat="37.56779" lon="-112.84453"><ele>0.0</ele></trkpt>
      <trkpt lat="37.57126" lon="-112.84048"><ele>0.0</ele></trkpt>
      <trkpt lat="37.57194" lon="-112.82899"><ele>0.0</ele></trkpt>
      <trkpt lat="37.5727" lon="-112.82127"><ele>0.0</ele></trkpt>
      <trkpt lat="37.57049" lon="-112.81286"><ele>0.0</ele></trkpt>
      <trkpt lat="37.57033" lon="-112.80553"><ele>0.0</ele></trkpt>
      <trkpt lat="37.56848" lon="-112.7937"><ele>0.0</ele></trkpt>
      <trkpt lat="37.55771" lon="-112.78968"><ele>0.0</ele></trkpt>
      <trkpt lat="37.55233" lon="-112.78789"><ele>0.0</ele></trkpt>
      <trkpt lat="37.54343" lon="-112.78486"><ele>0.0</ele></trkpt>
      <trkpt lat="37.53959" lon="-112.77639"><ele>0.0</ele></trkpt>
      <trkpt lat="37.5342" lon="-112.77214"><ele>0.0</ele></trkpt>
      <trkpt lat="37.52761" lon="-112.76263"><ele>0.0</ele></trkpt>
      <trkpt lat="37.52779" lon="-112.75698"><ele>0.0</ele></trkpt>
      <trkpt lat="37.52639" lon="-112.74729"><ele>0.0</ele></trkpt>
      <trkpt lat="37.52141" lon="-112.7333"><ele>0.0</ele></trkpt>
      <trkpt lat="37.51824" lon="-112.72183"><ele>0.0</ele></trkpt>
      <trkpt lat="37.5185" lon="-112.70972"><ele>0.0</ele></trkpt>
      <trkpt lat="37.51862" lon="-112.70362"><ele>0.0</ele></trkpt>
      <trkpt lat="37.51385" lon="-112.68923"><ele>0.0</ele></trkpt>
      <trkpt lat="37.51669" lon="-112.6814"><ele>0.0</ele></trkpt>
      <trkpt lat="37.5187" lon="-112.67421"><ele>0.0</ele></trkpt>
      <trkpt lat="37.5203" lon="-112.65141"><ele>0.0</ele></trkpt>
      <trkpt lat="37.51422" lon="-112.63846"><ele>0.0</ele></trkpt>
      <trkpt lat="37.50954" lon="-112.62989"><ele>0.0</ele></trkpt>
      <trkpt lat="37.50206" lon="-112.62347"><ele>0.0</ele></trkpt>
      <trkpt lat="37.49362" lon="-112.61985"><ele>0.0</ele></trkpt>
      <trkpt lat="37.49383" lon="-112.60728"><ele>0.0</ele></trkpt>
      <trkpt lat="37.4997" lon="-112.59093"><ele>0.0</ele></trkpt>
      <trkpt lat="37.49209" lon="-112.5727"><ele>0.0</ele></trkpt>
      <trkpt lat="37.49556" lon="-112.55164"><ele>0.0</ele></trkpt>
      <trkpt lat="37.49651" lon="-112.54332"><ele>0.0</ele></trkpt>
      <trkpt lat="37.49721" lon="-112.53469"><ele>0.0</ele></trkpt>
      <trkpt lat="37.49348" lon="-112.53024"><ele>0.0</ele></trkpt>
      <trkpt lat="37.49051" lon="-112.52921"><ele>0.0</ele></trkpt>
      <trkpt lat="37.48883" lon="-112.52582"><ele>0.0</ele></trkpt>
      <trkpt lat="37.49058" lon="-112.52392"><ele>0.0</ele></trkpt>
      <trkpt lat="37.49121" lon="-112.52225"><ele>0.0</ele></trkpt>
      <trkpt lat="37.49196" lon="-112.51056"><ele>0.0</ele></trkpt>
      <trkpt lat="37.49994" lon="-112.50313"><ele>0.0</ele></trkpt>
      <trkpt lat="37.50959" lon="-112.49748"><ele>0.0</ele></trkpt>
      <trkpt lat="37.51599" lon="-112.49743"><ele>0.0</ele></trkpt>
      <trkpt lat="37.5319" lon="-112.48711"><ele>0.0</ele></trkpt>
      <trkpt lat="37.55679" lon="-112.48783"><ele>0.0</ele></trkpt>
      <trkpt lat="37.56148" lon="-112.48629"><ele>0.0</ele></trkpt>
      <trkpt lat="37.58719" lon="-112.47589"><ele>0.0</ele></trkpt>
      <trkpt lat="37.59254" lon="-112.47174"><ele>0.0</ele></trkpt>
      <trkpt lat="37.59926" lon="-112.47093"><ele>0.0</ele></trkpt>
      <trkpt lat="37.60644" lon="-112.46768"><ele>0.0</ele></trkpt>
      <trkpt lat="37.6158" lon="-112.46458"><ele>0.0</ele></trkpt>
      <trkpt lat="37.63047" lon="-112.45463"><ele>0.0</ele></trkpt>
      <trkpt lat="37.63838" lon="-112.43977"><ele>0.0</ele></trkpt>
      <trkpt lat="37.64584" lon="-112.43448"><ele>0.0</ele></trkpt>
      <trkpt lat="37.65988" lon="-112.43075"><ele>0.0</ele></trkpt>
      <trkpt lat="37.66889" lon="-112.41647"><ele>0.0</ele></trkpt>
      <trkpt lat="37.67688" lon="-112.40118"><ele>0.0</ele></trkpt>
      <trkpt lat="37.68918" lon="-112.40198"><ele>0.0</ele></trkpt>
      <trkpt lat="37.6992" lon="-112.39919"><ele>0.0</ele></trkpt>
      <trkpt lat="37.71215" lon="-112.38914"><ele>0.0</ele></trkpt>
      <trkpt lat="37.74047" lon="-112.3797"><ele>0.0</ele></trkpt>
      <trkpt lat="37.74894" lon="-112.377"><ele>0.0</ele></trkpt>
      <trkpt lat="37.74848" lon="-112.35985"><ele>0.0</ele></trkpt>
      <trkpt lat="37.74373" lon="-112.33103"><ele>0.0</ele></trkpt>
      <trkpt lat="37.74624" lon="-112.32603"><ele>0.0</ele></trkpt>
      <trkpt lat="37.74706" lon="-112.32188"><ele>0.0</ele></trkpt>
      <trkpt lat="37.74475" lon="-112.31261"><ele>0.0</ele></trkpt>
      <trkpt lat="37.74446" lon="-112.30687"><ele>0.0</ele></trkpt>
      <trkpt lat="37.7447" lon="-112.30236"><ele>0.0</ele></trkpt>
      <trkpt lat="37.74212" lon="-112.30051"><ele>0.0</ele></trkpt>
      <trkpt lat="37.74006" lon="-112.29627"><ele>0.0</ele></trkpt>
      <trkpt lat="37.73812" lon="-112.29305"><ele>0.0</ele></trkpt>
      <trkpt lat="37.73638" lon="-112.28757"><ele>0.0</ele></trkpt>
      <trkpt lat="37.73145" lon="-112.27881"><ele>0.0</ele></trkpt>
      <trkpt lat="37.72859" lon="-112.27147"><ele>0.0</ele></trkpt>
      <trkpt lat="37.72117" lon="-112.26387"><ele>0.0</ele></trkpt>
      <trkpt lat="37.70929" lon="-112.20936"><ele>0.0</ele></trkpt>
      <trkpt lat="37.69885" lon="-112.1899"><ele>0.0</ele></trkpt>
      <trkpt lat="37.6925" lon="-112.15276"><ele>0.0</ele></trkpt>
      <trkpt lat="37.69229" lon="-112.15177"><ele>0.0</ele></trkpt>
      <trkpt lat="37.68248" lon="-112.12788"><ele>0.0</ele></trkpt>
      <trkpt lat="37.68395" lon="-112.1208"><ele>0.0</ele></trkpt>
      <trkpt lat="37.68423" lon="-112.11442"><ele>0.0</ele></trkpt>
      <trkpt lat="37.67837" lon="-112.11328"><ele>0.0</ele></trkpt>
      <trkpt lat="37.67464" lon="-112.11235"><ele>0.0</ele></trkpt>
      <trkpt lat="37.66925" lon="-112.1097"><ele>0.0</ele></trkpt>
      <trkpt lat="37.66466" lon="-112.10929"><ele>0.0</ele></trkpt>
      <trkpt lat="37.66219" lon="-112.10442"><ele>0.0</ele></trkpt>
      <trkpt lat="37.66111" lon="-112.09838"><ele>0.0</ele></trkpt>
      <trkpt lat="37.6581" lon="-112.0933"><ele>0.0</ele></trkpt>
      <trkpt lat="37.65072" lon="-112.08163"><ele>0.0</ele></trkpt>
      <trkpt lat="37.63892" lon="-112.08185"><ele>0.0</ele></trkpt>
      <trkpt lat="37.62013" lon="-112.07783"><ele>0.0</ele></trkpt>
      <trkpt lat="37.61442" lon="-112.07423"><ele>0.0</ele></trkpt>
      <trkpt lat="37.61245" lon="-112.0647"><ele>0.0</ele></trkpt>
      <trkpt lat="37.60805" lon="-112.06065"><ele>0.0</ele></trkpt>
      <trkpt lat="37.59338" lon="-112.06225"><ele>0.0</ele></trkpt>
      <trkpt lat="37.58621" lon="-112.05774"><ele>0.0</ele></trkpt>
      <trkpt lat="37.57099" lon="-112.05665"><ele>0.0</ele></trkpt>
      <trkpt lat="37.56565" lon="-112.04693"><ele>0.0</ele></trkpt>
      <trkpt lat="37.56359" lon="-112.03628"><ele>0.0</ele></trkpt>
      <trkpt lat="37.55969" lon="-112.0233"><ele>0.0</ele></trkpt>
      <trkpt lat="37.55896" lon="-112.01823"><ele>0.0</ele></trkpt>
      <trkpt lat="37.56211" lon="-112.01279"><ele>0.0</ele></trkpt>
      <trkpt lat="37.56253" lon="-111.99309"><ele>0.0</ele></trkpt>
      <trkpt lat="37.56802" lon="-111.98992"><ele>0.0</ele></trkpt>
      <trkpt lat="37.58118" lon="-111.98513"><ele>0.0</ele></trkpt>
      <trkpt lat="37.59428" lon="-111.9803"><ele>0.0</ele></trkpt>
      <trkpt lat="37.6026" lon="-111.96639"><ele>0.0</ele></trkpt>
      <trkpt lat="37.601" lon="-111.95775"><ele>0.0</ele></trkpt>
      <trkpt lat="37.59248" lon="-111.9281"><ele>0.0</ele></trkpt>
      <trkpt lat="37.59616" lon="-111.92099"><ele>0.0</ele></trkpt>
      <trkpt lat="37.60376" lon="-111.91362"><ele>0.0</ele></trkpt>
      <trkpt lat="37.60905" lon="-111.90215"><ele>0.0</ele></trkpt>
      <trkpt lat="37.61588" lon="-111.89472"><ele>0.0</ele></trkpt>
      <trkpt lat="37.61578" lon="-111.88734"><ele>0.0</ele></trkpt>
      <trkpt lat="37.62147" lon="-111.86303"><ele>0.0</ele></trkpt>
      <trkpt lat="37.62374" lon="-111.85313"><ele>0.0</ele></trkpt>
      <trkpt lat="37.62826" lon="-111.84924"><ele>0.0</ele></trkpt>
      <trkpt lat="37.62961" lon="-111.8483"><ele>0.0</ele></trkpt>
      <trkpt lat="37.6315" lon="-111.84606"><ele>0.0</ele></trkpt>
      <trkpt lat="37.63518" lon="-111.84434"><ele>0.0</ele></trkpt>
      <trkpt lat="37.63637" lon="-111.84221"><ele>0.0</ele></trkpt>
      <trkpt lat="37.6378" lon="-111.84316"><ele>0.0</ele></trkpt>
      <trkpt lat="37.63892" lon="-111.84389"><ele>0.0</ele></trkpt>
      <trkpt lat="37.6417" lon="-111.84468"><ele>0.0</ele></trkpt>
      <trkpt lat="37.64525" lon="-111.8452"><ele>0.0</ele></trkpt>
      <trkpt lat="37.64926" lon="-111.84358"><ele>0.0</ele></trkpt>
      <trkpt lat="37.67171" lon="-111.82883"><ele>0.0</ele></trkpt>
      <trkpt lat="37.68379" lon="-111.81178"><ele>0.0</ele></trkpt>
      <trkpt lat="37.69794" lon="-111.79236"><ele>0.0</ele></trkpt>
      <trkpt lat="37.7122" lon="-111.78676"><ele>0.0</ele></trkpt>
      <trkpt lat="37.7185" lon="-111.78215"><ele>0.0</ele></trkpt>
      <trkpt lat="37.72696" lon="-111.77205"><ele>0.0</ele></trkpt>
      <trkpt lat="37.73487" lon="-111.7507"><ele>0.0</ele></trkpt>
      <trkpt lat="37.73817" lon="-111.73581"><ele>0.0</ele></trkpt>
      <trkpt lat="37.74189" lon="-111.71998"><ele>0.0</ele></trkpt>
      <trkpt lat="37.74192" lon="-111.70815"><ele>0.0</ele></trkpt>
      <trkpt lat="37.75128" lon="-111.70245"><ele>0.0</ele></trkpt>
      <trkpt lat="37.76065" lon="-111.69646"><ele>0.0</ele></trkpt>
      <trkpt lat="37.76442" lon="-111.6848"><ele>0.0</ele></trkpt>
      <trkpt lat="37.76763" lon="-111.67127"><ele>0.0</ele></trkpt>
      <trkpt lat="37.77216" lon="-111.65449"><ele>0.0</ele></trkpt>
      <trkpt lat="37.77483" lon="-111.64256"><ele>0.0</ele></trkpt>
      <trkpt lat="37.77636" lon="-111.63092"><ele>0.0</ele></trkpt>
      <trkpt lat="37.77416" lon="-111.61618"><ele>0.0</ele></trkpt>
      <trkpt lat="37.77035" lon="-111.6015"><ele>0.0</ele></trkpt>
      <trkpt lat="37.76701" lon="-111.59153"><ele>0.0</ele></trkpt>
      <trkpt lat="37.75723" lon="-111.57193"><ele>0.0</ele></trkpt>
      <trkpt lat="37.74219" lon="-111.55797"><ele>0.0</ele></trkpt>
      <trkpt lat="37.728" lon="-111.53215"><ele>0.0</ele></trkpt>
      <trkpt lat="37.72776" lon="-111.5221"><ele>0.0</ele></trkpt>
      <trkpt lat="37.7494" lon="-111.48326"><ele>0.0</ele></trkpt>
      <trkpt lat="37.75061" lon="-111.45975"><ele>0.0</ele></trkpt>
      <trkpt lat="37.74795" lon="-111.45588"><ele>0.0</ele></trkpt>
      <trkpt lat="37.74518" lon="-111.4546"><ele>0.0</ele></trkpt>
      <trkpt lat="37.74196" lon="-111.45379"><ele>0.0</ele></trkpt>
      <trkpt lat="37.74311" lon="-111.44775"><ele>0.0</ele></trkpt>
      <trkpt lat="37.74479" lon="-111.44998"><ele>0.0</ele></trkpt>
      <trkpt lat="37.74616" lon="-111.45098"><ele>0.0</ele></trkpt>
      <trkpt lat="37.74987" lon="-111.4465"><ele>0.0</ele></trkpt>
      <trkpt lat="37.74966" lon="-111.44322"><ele>0.0</ele></trkpt>
      <trkpt lat="37.7512" lon="-111.44126"><ele>0.0</ele></trkpt>
      <trkpt lat="37.75529" lon="-111.43528"><ele>0.0</ele></trkpt>
      <trkpt lat="37.76208" lon="-111.43063"><ele>0.0</ele></trkpt>
      <trkpt lat="37.76721" lon="-111.4273"><ele>0.0</ele></trkpt>
      <trkpt lat="37.77256" lon="-111.42229"><ele>0.0</ele></trkpt>
      <trkpt lat="37.77193" lon="-111.41625"><ele>0.0</ele></trkpt>
      <trkpt lat="37.77612" lon="-111.41932"><ele>0.0</ele></trkpt>
      <trkpt lat="37.78018" lon="-111.41855"><ele>0.0</ele></trkpt>
      <trkpt lat="37.78198" lon="-111.41893"><ele>0.0</ele></trkpt>
      <trkpt lat="37.78623" lon="-111.4175"><ele>0.0</ele></trkpt>
      <trkpt lat="37.78965" lon="-111.41552"><ele>0.0</ele></trkpt>
      <trkpt lat="37.79255" lon="-111.41374"><ele>0.0</ele></trkpt>
      <trkpt lat="37.79486" lon="-111.41204"><ele>0.0</ele></trkpt>
      <trkpt lat="37.79683" lon="-111.41014"><ele>0.0</ele></trkpt>
      <trkpt lat="37.79944" lon="-111.40695"><ele>0.0</ele></trkpt>
      <trkpt lat="37.80328" lon="-111.40537"><ele>0.0</ele></trkpt>
      <trkpt lat="37.80349" lon="-111.40255"><ele>0.0</ele></trkpt>
      <trkpt lat="37.80754" lon="-111.40246"><ele>0.0</ele></trkpt>
      <trkpt lat="37.81144" lon="-111.40624"><ele>0.0</ele></trkpt>
      <trkpt lat="37.8142" lon="-111.40898"><ele>0.0</ele></trkpt>
      <trkpt lat="37.82023" lon="-111.41238"><ele>0.0</ele></trkpt>
      <trkpt lat="37.8267" lon="-111.41149"><ele>0.0</ele></trkpt>
      <trkpt lat="37.83576" lon="-111.41829"><ele>0.0</ele></trkpt>
      <trkpt lat="37.84" lon="-111.42159"><ele>0.0</ele></trkpt>
      <trkpt lat="37.84913" lon="-111.42864"><ele>0.0</ele></trkpt>
      <trkpt lat="37.86239" lon="-111.43871"><ele>0.0</ele></trkpt>
      <trkpt lat="37.87013" lon="-111.44265"><ele>0.0</ele></trkpt>
      <trkpt lat="37.87498" lon="-111.44989"><ele>0.0</ele></trkpt>
      <trkpt lat="37.88762" lon="-111.45809"><ele>0.0</ele></trkpt>
      <trkpt lat="37.89203" lon="-111.45869"><ele>0.0</ele></trkpt>
      <trkpt lat="37.8942" lon="-111.45701"><ele>0.0</ele></trkpt>
      <trkpt lat="37.89326" lon="-111.45464"><ele>0.0</ele></trkpt>
      <trkpt lat="37.89086" lon="-111.45126"><ele>0.0</ele></trkpt>
      <trkpt lat="37.88858" lon="-111.44876"><ele>0.0</ele></trkpt>
      <trkpt lat="37.8921" lon="-111.4459"><ele>0.0</ele></trkpt>
      <trkpt lat="37.8958" lon="-111.44778"><ele>0.0</ele></trkpt>
      <trkpt lat="37.89846" lon="-111.43899"><ele>0.0</ele></trkpt>
      <trkpt lat="37.90098" lon="-111.43669"><ele>0.0</ele></trkpt>
      <trkpt lat="37.90388" lon="-111.42473"><ele>0.0</ele></trkpt>
      <trkpt lat="37.91834" lon="-111.42472"><ele>0.0</ele></trkpt>
      <trkpt lat="37.93132" lon="-111.42993"><ele>0.0</ele></trkpt>
      <trkpt lat="37.94166" lon="-111.43299"><ele>0.0</ele></trkpt>
      <trkpt lat="37.95089" lon="-111.43407"><ele>0.0</ele></trkpt>
      <trkpt lat="37.96147" lon="-111.43446"><ele>0.0</ele></trkpt>
      <trkpt lat="37.98571" lon="-111.43046"><ele>0.0</ele></trkpt>
      <trkpt lat="37.99405" lon="-111.43011"><ele>0.0</ele></trkpt>
      <trkpt lat="37.99419" lon="-111.42809"><ele>0.0</ele></trkpt>
      <trkpt lat="37.99225" lon="-111.42457"><ele>0.0</ele></trkpt>
      <trkpt lat="37.99148" lon="-111.42185"><ele>0.0</ele></trkpt>
      <trkpt lat="37.99356" lon="-111.41863"><ele>0.0</ele></trkpt>
      <trkpt lat="37.99803" lon="-111.4157"><ele>0.0</ele></trkpt>
      <trkpt lat="38.00277" lon="-111.40819"><ele>0.0</ele></trkpt>
      <trkpt lat="38.00532" lon="-111.40509"><ele>0.0</ele></trkpt>
      <trkpt lat="38.00819" lon="-111.40394"><ele>0.0</ele></trkpt>
      <trkpt lat="38.00905" lon="-111.39901"><ele>0.0</ele></trkpt>
      <trkpt lat="38.00647" lon="-111.39375"><ele>0.0</ele></trkpt>
      <trkpt lat="38.00838" lon="-111.38952"><ele>0.0</ele></trkpt>
      <trkpt lat="38.01" lon="-111.38223"><ele>0.0</ele></trkpt>
      <trkpt lat="38.01027" lon="-111.37688"><ele>0.0</ele></trkpt>
      <trkpt lat="38.01291" lon="-111.37201"><ele>0.0</ele></trkpt>
      <trkpt lat="38.01233" lon="-111.36561"><ele>0.0</ele></trkpt>
      <trkpt lat="38.01351" lon="-111.35934"><ele>0.0</ele></trkpt>
      <trkpt lat="38.01818" lon="-111.35519"><ele>0.0</ele></trkpt>
      <trkpt lat="38.02053" lon="-111.35238"><ele>0.0</ele></trkpt>
      <trkpt lat="38.02376" lon="-111.35074"><ele>0.0</ele></trkpt>
      <trkpt lat="38.02605" lon="-111.34907"><ele>0.0</ele></trkpt>
      <trkpt lat="38.02673" lon="-111.34543"><ele>0.0</ele></trkpt>
      <trkpt lat="38.02814" lon="-111.34293"><ele>0.0</ele></trkpt>
      <trkpt lat="38.03137" lon="-111.33997"><ele>0.0</ele></trkpt>
      <trkpt lat="38.03398" lon="-111.33326"><ele>0.0</ele></trkpt>
      <trkpt lat="38.03987" lon="-111.32885"><ele>0.0</ele></trkpt>
      <trkpt lat="38.04598" lon="-111.32776"><ele>0.0</ele></trkpt>
      <trkpt lat="38.05059" lon="-111.32832"><ele>0.0</ele></trkpt>
      <trkpt lat="38.05418" lon="-111.32538"><ele>0.0</ele></trkpt>
      <trkpt lat="38.05883" lon="-111.32831"><ele>0.0</ele></trkpt>
      <trkpt lat="38.0657" lon="-111.32975"><ele>0.0</ele></trkpt>
      <trkpt lat="38.0695" lon="-111.33121"><ele>0.0</ele></trkpt>
      <trkpt lat="38.06958" lon="-111.33458"><ele>0.0</ele></trkpt>
      <trkpt lat="38.07118" lon="-111.33709"><ele>0.0</ele></trkpt>
      <trkpt lat="38.07703" lon="-111.33901"><ele>0.0</ele></trkpt>
      <trkpt lat="38.08373" lon="-111.33696"><ele>0.0</ele></trkpt>
      <trkpt lat="38.08647" lon="-111.33921"><ele>0.0</ele></trkpt>
      <trkpt lat="38.08758" lon="-111.34413"><ele>0.0</ele></trkpt>
      <trkpt lat="38.091" lon="-111.34418"><ele>0.0</ele></trkpt>
      <trkpt lat="38.09363" lon="-111.34562"><ele>0.0</ele></trkpt>
      <trkpt lat="38.09936" lon="-111.33875"><ele>0.0</ele></trkpt>
      <trkpt lat="38.1029" lon="-111.33693"><ele>0.0</ele></trkpt>
      <trkpt lat="38.10509" lon="-111.3381"><ele>0.0</ele></trkpt>
      <trkpt lat="38.10849" lon="-111.33534"><ele>0.0</ele></trkpt>
      <trkpt lat="38.1098" lon="-111.33156"><ele>0.0</ele></trkpt>
      <trkpt lat="38.11347" lon="-111.32991"><ele>0.0</ele></trkpt>
      <trkpt lat="38.11838" lon="-111.32595"><ele>0.0</ele></trkpt>
      <trkpt lat="38.12388" lon="-111.3306"><ele>0.0</ele></trkpt>
      <trkpt lat="38.12749" lon="-111.32887"><ele>0.0</ele></trkpt>
      <trkpt lat="38.13185" lon="-111.32716"><ele>0.0</ele></trkpt>
      <trkpt lat="38.13799" lon="-111.32908"><ele>0.0</ele></trkpt>
      <trkpt lat="38.14416" lon="-111.32813"><ele>0.0</ele></trkpt>
      <trkpt lat="38.14787" lon="-111.32891"><ele>0.0</ele></trkpt>
      <trkpt lat="38.15184" lon="-111.33206"><ele>0.0</ele></trkpt>
      <trkpt lat="38.15565" lon="-111.33313"><ele>0.0</ele></trkpt>
      <trkpt lat="38.15922" lon="-111.33362"><ele>0.0</ele></trkpt>
      <trkpt lat="38.16351" lon="-111.33532"><ele>0.0</ele></trkpt>
      <trkpt lat="38.16826" lon="-111.34133"><ele>0.0</ele></trkpt>
      <trkpt lat="38.17375" lon="-111.34525"><ele>0.0</ele></trkpt>
      <trkpt lat="38.17853" lon="-111.34668"><ele>0.0</ele></trkpt>
      <trkpt lat="38.18484" lon="-111.35054"><ele>0.0</ele></trkpt>
      <trkpt lat="38.19114" lon="-111.35159"><ele>0.0</ele></trkpt>
      <trkpt lat="38.19659" lon="-111.35151"><ele>0.0</ele></trkpt>
      <trkpt lat="38.20082" lon="-111.35061"><ele>0.0</ele></trkpt>
      <trkpt lat="38.20653" lon="-111.3477"><ele>0.0</ele></trkpt>
      <trkpt lat="38.21276" lon="-111.34812"><ele>0.0</ele></trkpt>
      <trkpt lat="38.21962" lon="-111.34382"><ele>0.0</ele></trkpt>
      <trkpt lat="38.22369" lon="-111.34402"><ele>0.0</ele></trkpt>
      <trkpt lat="38.22791" lon="-111.35601"><ele>0.0</ele></trkpt>
      <trkpt lat="38.23249" lon="-111.36286"><ele>0.0</ele></trkpt>
      <trkpt lat="38.23936" lon="-111.37558"><ele>0.0</ele></trkpt>
      <trkpt lat="38.24435" lon="-111.37707"><ele>0.0</ele></trkpt>
      <trkpt lat="38.25313" lon="-111.37886"><ele>0.0</ele></trkpt>
      <trkpt lat="38.25837" lon="-111.37643"><ele>0.0</ele></trkpt>
      <trkpt lat="38.26561" lon="-111.37466"><ele>0.0</ele></trkpt>
      <trkpt lat="38.27087" lon="-111.37606"><ele>0.0</ele></trkpt>
      <trkpt lat="38.28163" lon="-111.39098"><ele>0.0</ele></trkpt>
      <trkpt lat="38.28408" lon="-111.39583"><ele>0.0</ele></trkpt>
      <trkpt lat="38.29057" lon="-111.39538"><ele>0.0</ele></trkpt>
      <trkpt lat="38.295" lon="-111.3998"><ele>0.0</ele></trkpt>
      <trkpt lat="38.29876" lon="-111.40127"><ele>0.0</ele></trkpt>
      <trkpt lat="38.29726" lon="-111.39629"><ele>0.0</ele></trkpt>
      <trkpt lat="38.30082" lon="-111.39161"><ele>0.0</ele></trkpt>
      <trkpt lat="38.30506" lon="-111.39293"><ele>0.0</ele></trkpt>
      <trkpt lat="38.30684" lon="-111.3913"><ele>0.0</ele></trkpt>
      <trkpt lat="38.31187" lon="-111.38735"><ele>0.0</ele></trkpt>
      <trkpt lat="38.31924" lon="-111.38317"><ele>0.0</ele></trkpt>
      <trkpt lat="38.32612" lon="-111.36782"><ele>0.0</ele></trkpt>
      <trkpt lat="38.3255" lon="-111.36106"><ele>0.0</ele></trkpt>
      <trkpt lat="38.32301" lon="-111.34435"><ele>0.0</ele></trkpt>
      <trkpt lat="38.32298" lon="-111.33291"><ele>0.0</ele></trkpt>
      <trkpt lat="38.32162" lon="-111.32179"><ele>0.0</ele></trkpt>
      <trkpt lat="38.31592" lon="-111.30556"><ele>0.0</ele></trkpt>
      <trkpt lat="38.31219" lon="-111.30046"><ele>0.0</ele></trkpt>
      <trkpt lat="38.30946" lon="-111.29818"><ele>0.0</ele></trkpt>
      <trkpt lat="38.30823" lon="-111.29318"><ele>0.0</ele></trkpt>
      <trkpt lat="38.30774" lon="-111.28289"><ele>0.0</ele></trkpt>
      <trkpt lat="38.30182" lon="-111.27597"><ele>0.0</ele></trkpt>
      <trkpt lat="38.29854" lon="-111.2724"><ele>0.0</ele></trkpt>
      <trkpt lat="38.29457" lon="-111.26743"><ele>0.0</ele></trkpt>
      <trkpt lat="38.29116" lon="-111.25832"><ele>0.0</ele></trkpt>
      <trkpt lat="38.2893" lon="-111.25132"><ele>0.0</ele></trkpt>
      <trkpt lat="38.28789" lon="-111.2418"><ele>0.0</ele></trkpt>
      <trkpt lat="38.28881" lon="-111.23358"><ele>0.0</ele></trkpt>
      <trkpt lat="38.28802" lon="-111.22526"><ele>0.0</ele></trkpt>
      <trkpt lat="38.28287" lon="-111.21766"><ele>0.0</ele></trkpt>
      <trkpt lat="38.2833" lon="-111.21248"><ele>0.0</ele></trkpt>
      <trkpt lat="38.28384" lon="-111.20282"><ele>0.0</ele></trkpt>
      <trkpt lat="38.28505" lon="-111.19688"><ele>0.0</ele></trkpt>
      <trkpt lat="38.28273" lon="-111.19453"><ele>0.0</ele></trkpt>
      <trkpt lat="38.27736" lon="-111.18965"><ele>0.0</ele></trkpt>
      <trkpt lat="38.27931" lon="-111.18389"><ele>0.0</ele></trkpt>
      <trkpt lat="38.2812" lon="-111.17889"><ele>0.0</ele></trkpt>
      <trkpt lat="38.28267" lon="-111.17644"><ele>0.0</ele></trkpt>
      <trkpt lat="38.28125" lon="-111.17297"><ele>0.0</ele></trkpt>
      <trkpt lat="38.28354" lon="-111.16822"><ele>0.0</ele></trkpt>
      <trkpt lat="38.28343" lon="-111.16473"><ele>0.0</ele></trkpt>
      <trkpt lat="38.28656" lon="-111.16374"><ele>0.0</ele></trkpt>
      <trkpt lat="38.28888" lon="-111.16231"><ele>0.0</ele></trkpt>
      <trkpt lat="38.28819" lon="-111.15921"><ele>0.0</ele></trkpt>
      <trkpt lat="38.28579" lon="-111.15373"><ele>0.0</ele></trkpt>
      <trkpt lat="38.28424" lon="-111.1478"><ele>0.0</ele></trkpt>
      <trkpt lat="38.28731" lon="-111.1414"><ele>0.0</ele></trkpt>
      <trkpt lat="38.2858" lon="-111.13954"><ele>0.0</ele></trkpt>
      <trkpt lat="38.28197" lon="-111.13759"><ele>0.0</ele></trkpt>
      <trkpt lat="38.28183" lon="-111.1354"><ele>0.0</ele></trkpt>
      <trkpt lat="38.28158" lon="-111.12891"><ele>0.0</ele></trkpt>
      <trkpt lat="38.27739" lon="-111.12956"><ele>0.0</ele></trkpt>
      <trkpt lat="38.27161" lon="-111.13126"><ele>0.0</ele></trkpt>
      <trkpt lat="38.26119" lon="-111.12466"><ele>0.0</ele></trkpt>
      <trkpt lat="38.2548" lon="-111.11831"><ele>0.0</ele></trkpt>
      <trkpt lat="38.24102" lon="-111.11766"><ele>0.0</ele></trkpt>
      <trkpt lat="38.22757" lon="-111.1144"><ele>0.0</ele></trkpt>
      <trkpt lat="38.22222" lon="-111.11264"><ele>0.0</ele></trkpt>
      <trkpt lat="38.20934" lon="-111.10715"><ele>0.0</ele></trkpt>
      <trkpt lat="38.19253" lon="-111.09527"><ele>0.0</ele></trkpt>
      <trkpt lat="38.18082" lon="-111.09422"><ele>0.0</ele></trkpt>
      <trkpt lat="38.16451" lon="-111.08787"><ele>0.0</ele></trkpt>
      <trkpt lat="38.15675" lon="-111.08683"><ele>0.0</ele></trkpt>
      <trkpt lat="38.14985" lon="-111.08223"><ele>0.0</ele></trkpt>
      <trkpt lat="38.14505" lon="-111.08252"><ele>0.0</ele></trkpt>
      <trkpt lat="38.13712" lon="-111.079"><ele>0.0</ele></trkpt>
      <trkpt lat="38.12774" lon="-111.07539"><ele>0.0</ele></trkpt>
      <trkpt lat="38.11951" lon="-111.07363"><ele>0.0</ele></trkpt>
      <trkpt lat="38.10529" lon="-111.07027"><ele>0.0</ele></trkpt>
      <trkpt lat="38.10193" lon="-111.07133"><ele>0.0</ele></trkpt>
      <trkpt lat="38.1003" lon="-111.07347"><ele>0.0</ele></trkpt>
      <trkpt lat="38.09904" lon="-111.07861"><ele>0.0</ele></trkpt>
      <trkpt lat="38.09725" lon="-111.08392"><ele>0.0</ele></trkpt>
      <trkpt lat="38.09481" lon="-111.08514"><ele>0.0</ele></trkpt>
      <trkpt lat="38.09261" lon="-111.08937"><ele>0.0</ele></trkpt>
      <trkpt lat="38.09009" lon="-111.09548"><ele>0.0</ele></trkpt>
      <trkpt lat="38.08997" lon="-111.09982"><ele>0.0</ele></trkpt>
      <trkpt lat="38.08859" lon="-111.10462"><ele>0.0</ele></trkpt>
      <trkpt lat="38.08888" lon="-111.1087"><ele>0.0</ele></trkpt>
      <trkpt lat="38.08647" lon="-111.11002"><ele>0.0</ele></trkpt>
      <trkpt lat="38.08747" lon="-111.11243"><ele>0.0</ele></trkpt>
      <trkpt lat="38.08746" lon="-111.11531"><ele>0.0</ele></trkpt>
      <trkpt lat="38.08704" lon="-111.11727"><ele>0.0</ele></trkpt>
      <trkpt lat="38.08675" lon="-111.11915"><ele>0.0</ele></trkpt>
      <trkpt lat="38.08621" lon="-111.12216"><ele>0.0</ele></trkpt>
      <trkpt lat="38.08597" lon="-111.12424"><ele>0.0</ele></trkpt>
    </trkseg>
  </trk>
</gpx>