<?xml version="1.0" encoding="UTF-8"?>
<kml xmlns="http://www.opengis.net/kml/2.2">
  <Document>
    <name>Day 3 - Alamo NV to Capitol Reef NP</name>
    <description>US-93 N through Caliente and Panaca, NV-319 to Utah, UT-56 to Cedar City, UT-14 E through Dixie National Forest, US-89 N, UT-12 E scenic byway, UT-24 W to Capitol Reef NP. 369 miles.</description>
    <Folder>
      <name>Waypoints</name>
  <Placemark>
    <name>Start - Alamo NV</name>
    <Point><coordinates>-115.16376,37.36495,0</coordinates></Point>
  </Placemark>
  <Placemark>
    <name>Broadway St to US-93 N</name>
    <Point><coordinates>-115.15995,37.36863,0</coordinates></Point>
  </Placemark>
  <Placemark>
    <name>US-93 N to US-93 E</name>
    <Point><coordinates>-114.40714,37.79037,0</coordinates></Point>
  </Placemark>
  <Placemark>
    <name>US-93 E to NV-319 E</name>
    <Point><coordinates>-114.2877,37.78999,0</coordinates></Point>
  </Placemark>
  <Placemark>
    <name>NV-319 to UT-56</name>
    <Point><coordinates>-114.04026,37.72458,0</coordinates></Point>
  </Placemark>
  <Placemark>
    <name>UT-56 to N Main St</name>
    <Point><coordinates>-113.05839,37.68094,0</coordinates></Point>
  </Placemark>
  <Placemark>
    <name>N Main St to UT-14 E</name>
    <Point><coordinates>-113.05273,37.67729,0</coordinates></Point>
  </Placemark>
  <Placemark>
    <name>UT-14 E to UT-148 N</name>
    <Point><coordinates>-112.88145,37.58993,0</coordinates></Point>
  </Placemark>
  <Placemark>
    <name>UT-148 N to US-89 N</name>
    <Point><coordinates>-112.84281,37.57196,0</coordinates></Point>
  </Placemark>
  <Placemark>
    <name>US-89 N to UT-12 E</name>
    <Point><coordinates>-112.43444,37.64739,0</coordinates></Point>
  </Placemark>
  <Placemark>
    <name>UT-12 E to UT-24 W</name>
    <Point><coordinates>-111.41893,38.29788,0</coordinates></Point>
  </Placemark>
  <Placemark>
    <name>End - Capitol Reef NP</name>
    <Point><coordinates>-111.12643,38.08343,0</coordinates></Point>
  </Placemark>
    </Folder>
    <Placemark>
      <name>Day 3 - Alamo NV to Capitol Reef NP</name>
      <LineString>
        <tessellate>1</tessellate>
        <coordinates>
            -115.16376,37.36495,0.0
            -115.16056,37.38497,0.0
            -115.17359,37.41785,0.0
            -115.18347,37.44125,0.0
            -115.19084,37.45204,0.0
            -115.19361,37.46813,0.0
            -115.2042,37.49237,0.0
            -115.22177,37.52433,0.0
            -115.21801,37.53015,0.0
            -115.19937,37.54228,0.0
            -115.19077,37.54943,0.0
            -115.18169,37.55048,0.0
            -115.15521,37.54954,0.0
            -115.08318,37.58405,0.0
            -115.03941,37.60499,0.0
            -115.00336,37.61778,0.0
            -114.86001,37.61366,0.0
            -114.79222,37.62008,0.0
            -114.75975,37.62286,0.0
            -114.74031,37.61538,0.0
            -114.7041,37.60665,0.0
            -114.69005,37.59495,0.0
            -114.68222,37.59267,0.0
            -114.67412,37.59771,0.0
            -114.66851,37.59911,0.0
            -114.65452,37.6014,0.0
            -114.64615,37.60516,0.0
            -114.62832,37.60229,0.0
            -114.61673,37.60937,0.0
            -114.59976,37.62179,0.0
            -114.58283,37.62223,0.0
            -114.57406,37.62254,0.0
            -114.56316,37.62223,0.0
            -114.55626,37.62206,0.0
            -114.5441,37.62162,0.0
            -114.53344,37.61358,0.0
            -114.52405,37.60938,0.0
            -114.51084,37.61499,0.0
            -114.51171,37.62158,0.0
            -114.50833,37.63152,0.0
            -114.50496,37.64927,0.0
            -114.49856,37.65396,0.0
            -114.49415,37.66017,0.0
            -114.48886,37.66863,0.0
            -114.48436,37.67459,0.0
            -114.47253,37.68441,0.0
            -114.45191,37.72847,0.0
            -114.42246,37.76365,0.0
            -114.40714,37.79037,0.0
            -114.35437,37.78867,0.0
            -114.34352,37.7878,0.0
            -114.32413,37.78845,0.0
            -114.303,37.78652,0.0
            -114.2911,37.78808,0.0
            -114.27452,37.79042,0.0
            -114.25344,37.78606,0.0
            -114.23901,37.78339,0.0
            -114.223,37.78227,0.0
            -114.20352,37.77413,0.0
            -114.19093,37.76573,0.0
            -114.17767,37.75445,0.0
            -114.1685,37.74974,0.0
            -114.13607,37.73545,0.0
            -114.10517,37.7278,0.0
            -114.09316,37.72605,0.0
            -114.05418,37.72413,0.0
            -114.03614,37.72565,0.0
            -114.02732,37.73119,0.0
            -113.99768,37.75307,0.0
            -113.92835,37.80148,0.0
            -113.91741,37.8017,0.0
            -113.81686,37.76622,0.0
            -113.6062,37.69148,0.0
            -113.55446,37.67294,0.0
            -113.49679,37.67576,0.0
            -113.46385,37.66205,0.0
            -113.42759,37.63165,0.0
            -113.40495,37.61358,0.0
            -113.37537,37.61089,0.0
            -113.36623,37.60871,0.0
            -113.35821,37.60774,0.0
            -113.34021,37.61404,0.0
            -113.31684,37.62566,0.0
            -113.29549,37.63266,0.0
            -113.27996,37.63686,0.0
            -113.25752,37.64015,0.0
            -113.23945,37.64755,0.0
            -113.1807,37.67586,0.0
            -113.09642,37.68455,0.0
            -113.05835,37.67791,0.0
            -113.04949,37.67511,0.0
            -113.04131,37.67183,0.0
            -113.03087,37.67407,0.0
            -113.02533,37.67297,0.0
            -113.01858,37.67329,0.0
            -113.0131,37.67031,0.0
            -113.00658,37.66602,0.0
            -112.99681,37.66275,0.0
            -112.99176,37.65689,0.0
            -112.98214,37.6521,0.0
            -112.97204,37.6483,0.0
            -112.96686,37.64497,0.0
            -112.96002,37.64363,0.0
            -112.95594,37.64187,0.0
            -112.94778,37.63545,0.0
            -112.93963,37.63083,0.0
            -112.93612,37.62927,0.0
            -112.9334,37.62483,0.0
            -112.93164,37.61968,0.0
            -112.93312,37.61085,0.0
            -112.93525,37.60833,0.0
            -112.9365,37.60388,0.0
            -112.93402,37.60062,0.0
            -112.92691,37.59681,0.0
            -112.91434,37.59443,0.0
            -112.90269,37.59042,0.0
            -112.89934,37.5921,0.0
            -112.89944,37.59308,0.0
            -112.89254,37.5935,0.0
            -112.883,37.59228,0.0
            -112.8833,37.58701,0.0
            -112.88304,37.58263,0.0
            -112.87829,37.58153,0.0
            -112.87434,37.58131,0.0
            -112.87024,37.57869,0.0
            -112.8663,37.5775,0.0
            -112.86162,37.5749,0.0
            -112.85902,37.57174,0.0
            -112.85529,37.57003,0.0
            -112.84981,37.56793,0.0
            -112.84453,37.56779,0.0
            -112.84048,37.57126,0.0
            -112.82899,37.57194,0.0
            -112.82127,37.5727,0.0
            -112.81286,37.57049,0.0
            -112.80553,37.57033,0.0
            -112.7937,37.56848,0.0
            -112.78968,37.55771,0.0
            -112.78789,37.55233,0.0
            -112.78486,37.54343,0.0
            -112.77639,37.53959,0.0
            -112.77214,37.5342,0.0
            -112.76263,37.52761,0.0
            -112.75698,37.52779,0.0
            -112.74729,37.52639,0.0
            -112.7333,37.52141,0.0
            -112.72183,37.51824,0.0
            -112.70972,37.5185,0.0
            -112.70362,37.51862,0.0
            -112.68923,37.51385,0.0
            -112.6814,37.51669,0.0
            -112.67421,37.5187,0.0
            -112.65141,37.5203,0.0
            -112.63846,37.51422,0.0
            -112.62989,37.50954,0.0
            -112.62347,37.50206,0.0
            -112.61985,37.49362,0.0
            -112.60728,37.49383,0.0
            -112.59093,37.4997,0.0
            -112.5727,37.49209,0.0
            -112.55164,37.49556,0.0
            -112.54332,37.49651,0.0
            -112.53469,37.49721,0.0
            -112.53024,37.49348,0.0
            -112.52921,37.49051,0.0
            -112.52582,37.48883,0.0
            -112.52392,37.49058,0.0
            -112.52225,37.49121,0.0
            -112.51056,37.49196,0.0
            -112.50313,37.49994,0.0
            -112.49748,37.50959,0.0
            -112.49743,37.51599,0.0
            -112.48711,37.5319,0.0
            -112.48783,37.55679,0.0
            -112.48629,37.56148,0.0
            -112.47589,37.58719,0.0
            -112.47174,37.59254,0.0
            -112.47093,37.59926,0.0
            -112.46768,37.60644,0.0
            -112.46458,37.6158,0.0
            -112.45463,37.63047,0.0
            -112.43977,37.63838,0.0
            -112.43448,37.64584,0.0
            -112.43075,37.65988,0.0
            -112.41647,37.66889,0.0
            -112.40118,37.67688,0.0
            -112.40198,37.68918,0.0
            -112.39919,37.6992,0.0
            -112.38914,37.71215,0.0
            -112.3797,37.74047,0.0
            -112.377,37.74894,0.0
            -112.35985,37.74848,0.0
            -112.33103,37.74373,0.0
            -112.32603,37.74624,0.0
            -112.32188,37.74706,0.0
            -112.31261,37.74475,0.0
            -112.30687,37.74446,0.0
            -112.30236,37.7447,0.0
            -112.30051,37.74212,0.0
            -112.29627,37.74006,0.0
            -112.29305,37.73812,0.0
            -112.28757,37.73638,0.0
            -112.27881,37.73145,0.0
            -112.27147,37.72859,0.0
            -112.26387,37.72117,0.0
            -112.20936,37.70929,0.0
            -112.1899,37.69885,0.0
            -112.15276,37.6925,0.0
            -112.15177,37.69229,0.0
            -112.12788,37.68248,0.0
            -112.1208,37.68395,0.0
            -112.11442,37.68423,0.0
            -112.11328,37.67837,0.0
            -112.11235,37.67464,0.0
            -112.1097,37.66925,0.0
            -112.10929,37.66466,0.0
            -112.10442,37.66219,0.0
            -112.09838,37.66111,0.0
            -112.0933,37.6581,0.0
            -112.08163,37.65072,0.0
            -112.08185,37.63892,0.0
            -112.07783,37.62013,0.0
            -112.07423,37.61442,0.0
            -112.0647,37.61245,0.0
            -112.06065,37.60805,0.0
            -112.06225,37.59338,0.0
            -112.05774,37.58621,0.0
            -112.05665,37.57099,0.0
            -112.04693,37.56565,0.0
            -112.03628,37.56359,0.0
            -112.0233,37.55969,0.0
            -112.01823,37.55896,0.0
            -112.01279,37.56211,0.0
            -111.99309,37.56253,0.0
            -111.98992,37.56802,0.0
            -111.98513,37.58118,0.0
            -111.9803,37.59428,0.0
            -111.96639,37.6026,0.0
            -111.95775,37.601,0.0
            -111.9281,37.59248,0.0
            -111.92099,37.59616,0.0
            -111.91362,37.60376,0.0
            -111.90215,37.60905,0.0
            -111.89472,37.61588,0.0
            -111.88734,37.61578,0.0
            -111.86303,37.62147,0.0
            -111.85313,37.62374,0.0
            -111.84924,37.62826,0.0
            -111.8483,37.62961,0.0
            -111.84606,37.6315,0.0
            -111.84434,37.63518,0.0
            -111.84221,37.63637,0.0
            -111.84316,37.6378,0.0
            -111.84389,37.63892,0.0
            -111.84468,37.6417,0.0
            -111.8452,37.64525,0.0
            -111.84358,37.64926,0.0
            -111.82883,37.67171,0.0
            -111.81178,37.68379,0.0
            -111.79236,37.69794,0.0
            -111.78676,37.7122,0.0
            -111.78215,37.7185,0.0
            -111.77205,37.72696,0.0
            -111.7507,37.73487,0.0
            -111.73581,37.73817,0.0
            -111.71998,37.74189,0.0
            -111.70815,37.74192,0.0
            -111.70245,37.75128,0.0
            -111.69646,37.76065,0.0
            -111.6848,37.76442,0.0
            -111.67127,37.76763,0.0
            -111.65449,37.77216,0.0
            -111.64256,37.77483,0.0
            -111.63092,37.77636,0.0
            -111.61618,37.77416,0.0
            -111.6015,37.77035,0.0
            -111.59153,37.76701,0.0
            -111.57193,37.75723,0.0
            -111.55797,37.74219,0.0
            -111.53215,37.728,0.0
            -111.5221,37.72776,0.0
            -111.48326,37.7494,0.0
            -111.45975,37.75061,0.0
            -111.45588,37.74795,0.0
            -111.4546,37.74518,0.0
            -111.45379,37.74196,0.0
            -111.44775,37.74311,0.0
            -111.44998,37.74479,0.0
            -111.45098,37.74616,0.0
            -111.4465,37.74987,0.0
            -111.44322,37.74966,0.0
            -111.44126,37.7512,0.0
            -111.43528,37.75529,0.0
            -111.43063,37.76208,0.0
            -111.4273,37.76721,0.0
            -111.42229,37.77256,0.0
            -111.41625,37.77193,0.0
            -111.41932,37.77612,0.0
            -111.41855,37.78018,0.0
            -111.41893,37.78198,0.0
            -111.4175,37.78623,0.0
            -111.41552,37.78965,0.0
            -111.41374,37.79255,0.0
            -111.41204,37.79486,0.0
            -111.41014,37.79683,0.0
            -111.40695,37.79944,0.0
            -111.40537,37.80328,0.0
            -111.40255,37.80349,0.0
            -111.40246,37.80754,0.0
            -111.40624,37.81144,0.0
            -111.40898,37.8142,0.0
            -111.41238,37.82023,0.0
            -111.41149,37.8267,0.0
            -111.41829,37.83576,0.0
            -111.42159,37.84,0.0
            -111.42864,37.84913,0.0
            -111.43871,37.86239,0.0
            -111.44265,37.87013,0.0
            -111.44989,37.87498,0.0
            -111.45809,37.88762,0.0
            -111.45869,37.89203,0.0
            -111.45701,37.8942,0.0
            -111.45464,37.89326,0.0
            -111.45126,37.89086,0.0
            -111.44876,37.88858,0.0
            -111.4459,37.8921,0.0
            -111.44778,37.8958,0.0
            -111.43899,37.89846,0.0
            -111.43669,37.90098,0.0
            -111.42473,37.90388,0.0
            -111.42472,37.91834,0.0
            -111.42993,37.93132,0.0
            -111.43299,37.94166,0.0
            -111.43407,37.95089,0.0
            -111.43446,37.96147,0.0
            -111.43046,37.98571,0.0
            -111.43011,37.99405,0.0
            -111.42809,37.99419,0.0
            -111.42457,37.99225,0.0
            -111.42185,37.99148,0.0
            -111.41863,37.99356,0.0
            -111.4157,37.99803,0.0
            -111.40819,38.00277,0.0
            -111.40509,38.00532,0.0
            -111.40394,38.00819,0.0
            -111.39901,38.00905,0.0
            -111.39375,38.00647,0.0
            -111.38952,38.00838,0.0
            -111.38223,38.01,0.0
            -111.37688,38.01027,0.0
            -111.37201,38.01291,0.0
            -111.36561,38.01233,0.0
            -111.35934,38.01351,0.0
            -111.35519,38.01818,0.0
            -111.35238,38.02053,0.0
            -111.35074,38.02376,0.0
            -111.34907,38.02605,0.0
            -111.34543,38.02673,0.0
            -111.34293,38.02814,0.0
            -111.33997,38.03137,0.0
            -111.33326,38.03398,0.0
            -111.32885,38.03987,0.0
            -111.32776,38.04598,0.0
            -111.32832,38.05059,0.0
            -111.32538,38.05418,0.0
            -111.32831,38.05883,0.0
            -111.32975,38.0657,0.0
            -111.33121,38.0695,0.0
            -111.33458,38.06958,0.0
            -111.33709,38.07118,0.0
            -111.33901,38.07703,0.0
            -111.33696,38.08373,0.0
            -111.33921,38.08647,0.0
            -111.34413,38.08758,0.0
            -111.34418,38.091,0.0
            -111.34562,38.09363,0.0
            -111.33875,38.09936,0.0
            -111.33693,38.1029,0.0
            -111.3381,38.10509,0.0
            -111.33534,38.10849,0.0
            -111.33156,38.1098,0.0
            -111.32991,38.11347,0.0
            -111.32595,38.11838,0.0
            -111.3306,38.12388,0.0
            -111.32887,38.12749,0.0
            -111.32716,38.13185,0.0
            -111.32908,38.13799,0.0
            -111.32813,38.14416,0.0
            -111.32891,38.14787,0.0
            -111.33206,38.15184,0.0
            -111.33313,38.15565,0.0
            -111.33362,38.15922,0.0
            -111.33532,38.16351,0.0
            -111.34133,38.16826,0.0
            -111.34525,38.17375,0.0
            -111.34668,38.17853,0.0
            -111.35054,38.18484,0.0
            -111.35159,38.19114,0.0
            -111.35151,38.19659,0.0
            -111.35061,38.20082,0.0
            -111.3477,38.20653,0.0
            -111.34812,38.21276,0.0
            -111.34382,38.21962,0.0
            -111.34402,38.22369,0.0
            -111.35601,38.22791,0.0
            -111.36286,38.23249,0.0
            -111.37558,38.23936,0.0
            -111.37707,38.24435,0.0
            -111.37886,38.25313,0.0
            -111.37643,38.25837,0.0
            -111.37466,38.26561,0.0
            -111.37606,38.27087,0.0
            -111.39098,38.28163,0.0
            -111.39583,38.28408,0.0
            -111.39538,38.29057,0.0
            -111.3998,38.295,0.0
            -111.40127,38.29876,0.0
            -111.39629,38.29726,0.0
            -111.39161,38.30082,0.0
            -111.39293,38.30506,0.0
            -111.3913,38.30684,0.0
            -111.38735,38.31187,0.0
            -111.38317,38.31924,0.0
            -111.36782,38.32612,0.0
            -111.36106,38.3255,0.0
            -111.34435,38.32301,0.0
            -111.33291,38.32298,0.0
            -111.32179,38.32162,0.0
            -111.30556,38.31592,0.0
            -111.30046,38.31219,0.0
            -111.29818,38.30946,0.0
            -111.29318,38.30823,0.0
            -111.28289,38.30774,0.0
            -111.27597,38.30182,0.0
            -111.2724,38.29854,0.0
            -111.26743,38.29457,0.0
            -111.25832,38.29116,0.0
            -111.25132,38.2893,0.0
            -111.2418,38.28789,0.0
            -111.23358,38.28881,0.0
            -111.22526,38.28802,0.0
            -111.21766,38.28287,0.0
            -111.21248,38.2833,0.0
            -111.20282,38.28384,0.0
            -111.19688,38.28505,0.0
            -111.19453,38.28273,0.0
            -111.18965,38.27736,0.0
            -111.18389,38.27931,0.0
            -111.17889,38.2812,0.0
            -111.17644,38.28267,0.0
            -111.17297,38.28125,0.0
            -111.16822,38.28354,0.0
            -111.16473,38.28343,0.0
            -111.16374,38.28656,0.0
            -111.16231,38.28888,0.0
            -111.15921,38.28819,0.0
            -111.15373,38.28579,0.0
            -111.1478,38.28424,0.0
            -111.1414,38.28731,0.0
            -111.13954,38.2858,0.0
            -111.13759,38.28197,0.0
            -111.1354,38.28183,0.0
            -111.12891,38.28158,0.0
            -111.12956,38.27739,0.0
            -111.13126,38.27161,0.0
            -111.12466,38.26119,0.0
            -111.11831,38.2548,0.0
            -111.11766,38.24102,0.0
            -111.1144,38.22757,0.0
            -111.11264,38.22222,0.0
            -111.10715,38.20934,0.0
            -111.09527,38.19253,0.0
            -111.09422,38.18082,0.0
            -111.08787,38.16451,0.0
            -111.08683,38.15675,0.0
            -111.08223,38.14985,0.0
            -111.08252,38.14505,0.0
            -111.079,38.13712,0.0
            -111.07539,38.12774,0.0
            -111.07363,38.11951,0.0
            -111.07027,38.10529,0.0
            -111.07133,38.10193,0.0
            -111.07347,38.1003,0.0
            -111.07861,38.09904,0.0
            -111.08392,38.09725,0.0
            -111.08514,38.09481,0.0
            -111.08937,38.09261,0.0
            -111.09548,38.09009,0.0
            -111.09982,38.08997,0.0
            -111.10462,38.08859,0.0
            -111.1087,38.08888,0.0
            -111.11002,38.08647,0.0
            -111.11243,38.08747,0.0
            -111.11531,38.08746,0.0
            -111.11727,38.08704,0.0
            -111.11915,38.08675,0.0
            -111.12216,38.08621,0.0
            -111.12424,38.08597,0.0
        </coordinates>
      </LineString>
    </Placemark>
  </Document>
</kml>